H1 CPF  1  HTS 2022  2 20 12  5511 larets           NONE
H2  0304206 5557    27944 2022 02 20  0  0  0 2022 02 25  0  0  0   180 1 1  0 0 0
H5  0.0560 
H9 
10 0 59631  59400.00000  0    1777732.166    -100327.174    6833411.130
10 0 59631  59580.00000  0    2760568.855    -953585.184    6430142.370
10 0 59631  59760.00000  0    3621115.290   -1796486.750    5792184.613
10 0 59631  59940.00000  0    4328825.244   -2594834.532    4942687.458
10 0 59631  60120.00000  0    4859519.717   -3315275.050    3912532.712
10 0 59631  60300.00000  0    5196249.362   -3926696.062    2739257.449
10 0 59631  60480.00000  0    5329874.213   -4401578.889    1465709.558
10 0 59631  60660.00000  0    5259323.618   -4717239.532     138481.081
10 0 59631  60840.00000  0    4991522.609   -4856896.532   -1193820.771
10 0 59631  61020.00000  0    4540983.457   -4810505.577   -2482396.252
10 0 59631  61200.00000  0    3929079.570   -4575313.160   -3680085.929
10 0 59631  61380.00000  0    3183041.998   -4156102.131   -4743128.678
10 0 59631  61560.00000  0    2334734.098   -3565118.819   -5632769.359
10 0 59631  61740.00000  0    1419270.226   -2821692.263   -6316649.040
10 0 59631  61920.00000  0     473551.833   -1951574.901   -6769940.862
10 0 59631  62100.00000  0    -465222.489    -986027.584   -6976206.861
10 0 59631  62280.00000  0   -1361009.702      39312.957   -6927951.383
10 0 59631  62460.00000  0   -2180290.442    1085740.092   -6626872.960
10 0 59631  62640.00000  0   -2893312.489    2112920.010   -6083812.826
10 0 59631  62820.00000  0   -3475171.079    3080430.336   -5318402.836
10 0 59631  63000.00000  0   -3906698.305    3949351.177   -4358412.222
10 0 59631  63180.00000  0   -4175125.845    4683850.240   -3238789.782
10 0 59631  63360.00000  0   -4274483.139    5252691.830   -2000424.031
10 0 59631  63540.00000  0   -4205716.805    5630601.379    -688660.273
10 0 59631  63720.00000  0   -3976519.185    5799417.683     648382.609
10 0 59631  63900.00000  0   -3600864.546    5748960.613    1961626.520
10 0 59631  64080.00000  0   -3098275.469    5477566.795    3202897.713
10 0 59631  64260.00000  0   -2492853.368    4992256.761    4326745.220
10 0 59631  64440.00000  0   -1812136.735    4308536.922    5292125.966
10 0 59631  64620.00000  0   -1085850.036    3449854.886    6063897.088
10 0 59631  64800.00000  0    -344604.900    2446738.100    6614060.446
10 0 59631  64980.00000  0     381382.830    1335664.419    6922724.289
10 0 59631  65160.00000  0    1063511.020     157715.418    6978770.376
10 0 59631  65340.00000  0    1675902.564   -1042940.334    6780217.043
10 0 59631  65520.00000  0    2196374.148   -2220687.580    6334280.797
10 0 59631  65700.00000  0    2607235.429   -3330181.966    5657133.200
10 0 59631  65880.00000  0    2895894.212   -4328091.640    4773353.161
10 0 59631  66060.00000  0    3055245.988   -5174801.525    3715081.992
10 0 59631  66240.00000  0    3083835.170   -5836017.782    2520895.207
10 0 59631  66420.00000  0    2985775.045   -6284200.756    1234416.663
10 0 59631  66600.00000  0    2770426.089   -6499752.306     -97278.820
10 0 59631  66780.00000  0    2451850.294   -6471900.031   -1425413.351
10 0 59631  66960.00000  0    2048059.805   -6199223.025   -2701340.058
10 0 59631  67140.00000  0    1580098.037   -5689785.771   -3878371.368
10 0 59631  67320.00000  0    1071003.501   -4960870.758   -4913517.698
10 0 59631  67500.00000  0     544720.792   -4038335.614   -5769057.283
10 0 59631  67680.00000  0      25008.803   -2955638.420   -6413885.937
10 0 59631  67860.00000  0    -465603.883   -1752577.704   -6824604.382
10 0 59631  68040.00000  0    -906771.480    -473805.309   -6986318.647
10 0 59631  68220.00000  0   -1281155.649     832832.038   -6893143.057
10 0 59631  68400.00000  0   -1575096.751    2118066.263   -6548398.478
10 0 59631  68580.00000  0   -1779110.570    3333043.719   -5964508.985
10 0 59631  68760.00000  0   -1888197.079    4431174.719   -5162597.938
10 0 59631  68940.00000  0   -1901950.530    5369938.346   -4171778.632
10 0 59631  69120.00000  0   -1824465.210    6112573.383   -3028144.413
10 0 59631  69300.00000  0   -1664034.967    6629577.092   -1773482.073
10 0 59631  69480.00000  0   -1432659.499    6899944.008    -453747.863
10 0 59631  69660.00000  0   -1145378.465    6912075.844     882641.406
10 0 59631  69840.00000  0    -819464.371    6664311.347    2186637.199
10 0 59631  70020.00000  0    -473517.127    6165025.275    3410423.335
10 0 59631  70200.00000  0    -126511.678    5432303.023    4509209.326
10 0 59631  70380.00000  0     203148.847    4493224.583    5442890.490
10 0 59631  70560.00000  0     498531.764    3382783.063    6177500.452
10 0 59631  70740.00000  0     744977.672    2142519.018    6686404.449
10 0 59631  70920.00000  0     930772.587     818925.218    6951213.396
10 0 59631  71100.00000  0    1047666.302    -538310.148    6962396.791
10 0 59631  71280.00000  0    1091219.497   -1878157.049    6719594.194
10 0 59631  71460.00000  0    1060968.588   -3150144.873    6231624.336
10 0 59631  71640.00000  0     960402.777   -4306253.266    5516185.032
10 0 59631  71820.00000  0     796755.604   -5302724.814    4599247.112
10 0 59631  72000.00000  0     580622.218   -6101743.841    3514163.449
10 0 59631  72180.00000  0     325411.469   -6672925.270    2300497.488
10 0 59631  72360.00000  0      46653.153   -6994533.518    1002598.357
10 0 59631  72540.00000  0    -238807.227   -7054372.858    -332026.350
10 0 59631  72720.00000  0    -513687.567   -6850294.062   -1654487.885
10 0 59631  72900.00000  0    -761172.055   -6390275.695   -2916355.077
10 0 59631  73080.00000  0    -965790.935   -5692088.279   -4071467.656
10 0 59631  73260.00000  0   -1114233.423   -4782557.737   -5077650.779
10 0 59631  73440.00000  0   -1196050.709   -3696469.382   -5898251.918
10 0 59631  73620.00000  0   -1204216.034   -2475179.662   -6503447.032
10 0 59631  73800.00000  0   -1135518.159   -1165000.323   -6871280.200
10 0 59631  73980.00000  0    -990775.274     184574.035   -6988411.293
10 0 59631  74160.00000  0    -774861.817    1522728.070   -6850564.023
10 0 59631  74340.00000  0    -496546.489    2799216.919   -6462672.086
10 0 59631  74520.00000  0    -168148.216    3966235.065   -5838725.528
10 0 59631  74700.00000  0     194983.980    4980211.409   -5001312.196
10 0 59631  74880.00000  0     575149.207    5803466.007   -3980854.071
10 0 59631  75060.00000  0     953106.244    6405667.847   -2814548.433
10 0 59631  75240.00000  0    1308986.315    6765023.888   -1545036.232
10 0 59631  75420.00000  0    1623265.408    6869139.493    -218837.358
10 0 59631  75600.00000  0    1877747.147    6715494.756    1115390.855
10 0 59631  75780.00000  0    2056500.600    6311504.174    2408690.941
10 0 59631  75960.00000  0    2146704.206    5674161.477    3613652.692
10 0 59631  76140.00000  0    2139352.723    4829290.117    4686191.858
10 0 59631  76320.00000  0    2029788.274    3810435.295    5587183.287
10 0 59631  76500.00000  0    1818030.267    2657460.581    6283869.555
10 0 59631  76680.00000  0    1508897.428    1414940.487    6751006.601
10 0 59631  76860.00000  0    1111917.950     130409.518    6971726.220
10 0 59631  77040.00000  0     641033.594   -1147456.667    6938094.248
10 0 59631  77220.00000  0     114108.719   -2370669.685    6651371.804
10 0 59631  77400.00000  0    -447743.779   -3493716.220    6121967.499
10 0 59631  77580.00000  0   -1020993.938   -4475242.333    5369077.590
10 0 59631  77760.00000  0   -1580654.714   -5279579.508    4420035.169
10 0 59631  77940.00000  0   -2101348.834   -5878079.255    3309375.072
10 0 59631  78120.00000  0   -2558437.921   -6250190.567    2077611.413
10 0 59631  78300.00000  0   -2929159.734   -6384218.824     769770.436
10 0 59631  78480.00000  0   -3193716.246   -6277731.406    -566269.560
10 0 59631  78660.00000  0   -3336256.592   -5937583.180   -1881566.870
10 0 59631  78840.00000  0   -3345703.377   -5379553.717   -3127956.131
10 0 59631  79020.00000  0   -3216377.011   -4627612.119   -4259854.638
10 0 59631  79200.00000  0   -2948383.412   -3712851.945   -5235949.744
10 0 59631  79380.00000  0   -2547752.038   -2672162.124   -6020697.894
10 0 59631  79560.00000  0   -2026323.855   -1546702.072   -6585587.549
10 0 59631  79740.00000  0   -1401393.651    -380250.645   -6910129.841
10 0 59631  79920.00000  0    -695127.044     782500.141   -6982551.230
10 0 59631  80100.00000  0      66223.670    1897641.147   -6800187.874
10 0 59631  80280.00000  0     853282.554    2923684.169   -6369581.935
10 0 59631  80460.00000  0    1634668.451    3823098.851   -5706277.005
10 0 59631  80640.00000  0    2378234.751    4563697.639   -4834302.338
10 0 59631  80820.00000  0    3052386.472    5119820.656   -3785356.543
10 0 59631  81000.00000  0    3627425.425    5473275.660   -2597698.243
10 0 59631  81180.00000  0    4076866.329    5613984.689   -1314770.192
10 0 59631  81360.00000  0    4378657.256    5540299.534      16401.474
10 0 59631  81540.00000  0    4516237.271    5258963.207    1346970.642
10 0 59631  81720.00000  0    4479371.814    4784712.723    2628115.384
10 0 59631  81900.00000  0    4264724.882    4139551.158    3812881.471
10 0 59631  82080.00000  0    3876132.438    3351718.397    4857943.158
10 0 59631  82260.00000  0    3324571.478    2454425.863    5725196.107
10 0 59631  82440.00000  0    2627826.265    1484422.916    6383127.591
10 0 59631  82620.00000  0    1809880.811     480468.287    6807912.032
10 0 59631  82800.00000  0     900068.734    -518222.282    6984218.000
10 0 59631  82980.00000  0     -67988.651   -1473495.507    6905719.528
10 0 59631  83160.00000  0   -1057621.701   -2349705.127    6575300.132
10 0 59631  83340.00000  0   -2030487.945   -3115029.669    6004945.283
10 0 59631  83520.00000  0   -2948036.202   -3742622.633    5215337.101
10 0 59631  83700.00000  0   -3773030.325   -4211569.541    4235158.151
99
